METEOR-M2 3             
1 57166U 23091A   24268.47552997  .00000066  00000+0  47805-4 0  9999
2 57166  98.7025 322.2111 0003776 186.2067 173.9066 14.23928070 64753
METEOR-M2 3 DEB         
1 60448U 23091BC  24267.89327511  .00000946  00000+0  42948-3 0  9992
2 60448  98.7032 321.6880 0003942 186.9709 173.1415 14.24233255 28934
